{"type": "FeatureCollection", "features": [ {"type": "Feature", "properties": {"norad_id": 31566, "name": "FENGYUN 1C DEB", "group": "fengyun-1c-debris", "lat": 78.84711036066147, "lon": -75.1203561644261, "alt_km": 767.6646793118634, "timestamp": "2025-12-18T15:47:11.506511+00:00", "meta": {"OBJECT_NAME": "FENGYUN 1C DEB", "OBJECT_ID": "1999-025BZH", "EPOCH": "2025-12-17T16:33:26.083872", "MEAN_MOTION": 14.37451896, "ECCENTRICITY": 0.0023013, "INCLINATION": 98.95, "RA_OF_ASC_NODE": 50.8051, "ARG_OF_PERICENTER": 339.7375, "MEAN_ANOMALY": 150.8804, "EPHEMERIS_TYPE": 0, "CLASSIFICATION_TYPE": "U", "NORAD_CAT_ID": 31566, "ELEMENT_SET_NO": 999, "REV_AT_EPOCH": 96462, "BSTAR": 0.0016030698, "MEAN_MOTION_DOT": 4.765e-05, "MEAN_MOTION_DDOT": 0}, "tle": {"line1": "1 31566U 99025BZH 25351.68988523  .00004765  00000+0  16031-2 0  9995", "line2": "2 31566  98.9500  50.8051 0023013 339.7375 150.8804 14.37451896964620"}}, "geometry": {"type": "Point", "coordinates": [-75.1203561644261, 78.84711036066147]}}, {"type": "Feature", "properties": {"norad_id": 31567, "name": "FENGYUN 1C DEB", "group": "fengyun-1c-debris", "lat": 22.21550133171744, "lon": 46.41290583185303, "alt_km": 1017.1508731080467, "timestamp": "2025-12-18T15:47:11.506522+00:00", "meta": {"OBJECT_NAME": "FENGYUN 1C DEB", "OBJECT_ID": "1999-025BZJ", "EPOCH": "2025-12-17T11:26:14.743392", "MEAN_MOTION": 13.9291605, "ECCENTRICITY": 0.01867132, "INCLINATION": 102.317, "RA_OF_ASC_NODE": 219.7268, "ARG_OF_PERICENTER": 297.4648, "MEAN_ANOMALY": 60.7625, "EPHEMERIS_TYPE": 0, "CLASSIFICATION_TYPE": "U", "NORAD_CAT_ID": 31567, "ELEMENT_SET_NO": 999, "REV_AT_EPOCH": 67475, "BSTAR": 0.0023166751, "MEAN_MOTION_DOT": 3.4e-05, "MEAN_MOTION_DDOT": 0}, "tle": {"line1": "1 31567U 99025BZJ 25351.47655953  .00003400  00000+0  23167-2 0  9994", "line2": "2 31567 102.3170 219.7268 0186713 297.4648  60.7625 13.92916050674750"}}, "geometry": {"type": "Point", "coordinates": [46.41290583185303, 22.21550133171744]}}, {"type": "Feature", "properties": {"norad_id": 31568, "name": "FENGYUN 1C DEB", "group": "fengyun-1c-debris", "lat": -17.913938836726533, "lon": 52.71096306536136, "alt_km": 890.664519613043, "timestamp": "2025-12-18T15:47:11.506532+00:00", "meta": {"OBJECT_NAME": "FENGYUN 1C DEB", "OBJECT_ID": "1999-025BZK", "EPOCH": "2025-12-16T21:47:39.438240", "MEAN_MOTION": 14.03379275, "ECCENTRICITY": 0.01228745, "INCLINATION": 102.0487, "RA_OF_ASC_NODE": 234.3598, "ARG_OF_PERICENTER": 109.3987, "MEAN_ANOMALY": 252.0496, "EPHEMERIS_TYPE": 0, "CLASSIFICATION_TYPE": "U", "NORAD_CAT_ID": 31568, "ELEMENT_SET_NO": 999, "REV_AT_EPOCH": 94638, "BSTAR": 0.0023237781, "MEAN_MOTION_DOT": 3.818e-05, "MEAN_MOTION_DDOT": 0}, "tle": {"line1": "1 31568U 99025BZK 25350.90809535  .00003818  00000+0  23238-2 0  9991", "line2": "2 31568 102.0487 234.3598 0122874 109.3987 252.0496 14.03379275946381"}}, "geometry": {"type": "Point", "coordinates": [52.71096306536136, -17.913938836726533]}}, {"type": "Feature", "properties": {"norad_id": 31569, "name": "FENGYUN 1C DEB", "group": "fengyun-1c-debris", "lat": -31.07064276589112, "lon": -35.71842492019676, "alt_km": 1011.265222566637, "timestamp": "2025-12-18T15:47:11.506542+00:00", "meta": {"OBJECT_NAME": "FENGYUN 1C DEB", "OBJECT_ID": "1999-025BZL", "EPOCH": "2025-12-17T09:39:30.836736", "MEAN_MOTION": 13.95560448, "ECCENTRICITY": 0.01740525, "INCLINATION": 102.6149, "RA_OF_ASC_NODE": 150.3241, "ARG_OF_PERICENTER": 354.8436, "MEAN_ANOMALY": 34.4432, "EPHEMERIS_TYPE": 0, "CLASSIFICATION_TYPE": "U", "NORAD_CAT_ID": 31569, "ELEMENT_SET_NO": 999, "REV_AT_EPOCH": 93744, "BSTAR": 0.0018235826, "MEAN_MOTION_DOT": 2.742e-05, "MEAN_MOTION_DDOT": 0}, "tle": {"line1": "1 31569U 99025BZL 25351.40244024  .00002742  00000+0  18236-2 0  9991", "line2": "2 31569 102.6149 150.3241 0174052 354.8436  34.4432 13.95560448937449"}}, "geometry": {"type": "Point", "coordinates": [-35.71842492019676, -31.07064276589112]}}, {"type": "Feature", "properties": {"norad_id": 31570, "name": "FENGYUN 1C DEB", "group": "fengyun-1c-debris", "lat": 7.1323525542218835, "lon": 32.52217799184563, "alt_km": 912.2275527680076, "timestamp": "2025-12-18T15:47:11.506552+00:00", "meta": {"OBJECT_NAME": "FENGYUN 1C DEB", "OBJECT_ID": "1999-025BZM", "EPOCH": "2025-12-15T20:21:47.018304", "MEAN_MOTION": 14.25278416, "ECCENTRICITY": 0.01547184, "INCLINATION": 102.5675, "RA_OF_ASC_NODE": 30.1124, "ARG_OF_PERICENTER": 216.2531, "MEAN_ANOMALY": 142.807, "EPHEMERIS_TYPE": 0, "CLASSIFICATION_TYPE": "U", "NORAD_CAT_ID": 31570, "ELEMENT_SET_NO": 999, "REV_AT_EPOCH": 63411, "BSTAR": 0.0020808441, "MEAN_MOTION_DOT": 5.475e-05, "MEAN_MOTION_DDOT": 0}, "tle": {"line1": "1 31570U 99025BZM 25349.84846086  .00005475  00000+0  20808-2 0  9998", "line2": "2 31570 102.5675  30.1124 0154718 216.2531 142.8070 14.25278416634118"}}, "geometry": {"type": "Point", "coordinates": [32.52217799184563, 7.1323525542218835]}}, {"type": "Feature", "properties": {"norad_id": 31608, "name": "FENGYUN 1C DEB", "group": "fengyun-1c-debris", "lat": -51.38184034138527, "lon": 121.74805065792968, "alt_km": 582.5689645737693, "timestamp": "2025-12-18T15:47:11.506566+00:00", "meta": {"OBJECT_NAME": "FENGYUN 1C DEB", "OBJECT_ID": "1999-025BZN", "EPOCH": "2025-12-17T14:09:29.850912", "MEAN_MOTION": 14.85908283, "ECCENTRICITY": 0.01457059, "INCLINATION": 98.3797, "RA_OF_ASC_NODE": 109.9897, "ARG_OF_PERICENTER": 22.0076, "MEAN_ANOMALY": 338.7309, "EPHEMERIS_TYPE": 0, "CLASSIFICATION_TYPE": "U", "NORAD_CAT_ID": 31608, "ELEMENT_SET_NO": 999, "REV_AT_EPOCH": 98705, "BSTAR": 0.00045964647, "MEAN_MOTION_DOT": 4.79e-05, "MEAN_MOTION_DDOT": 0}, "tle": {"line1": "1 31608U 99025BZN 25351.58992883  .00004790  00000+0  45965-3 0  9992", "line2": "2 31608  98.3797 109.9897 0145705  22.0076 338.7309 14.85908283987055"}}, "geometry": {"type": "Point", "coordinates": [121.74805065792968, -51.38184034138527]}}, {"type": "Feature", "properties": {"norad_id": 31609, "name": "FENGYUN 1C DEB", "group": "fengyun-1c-debris", "lat": 80.66499290180036, "lon": -77.60076031128519, "alt_km": 889.8030413020897, "timestamp": "2025-12-18T15:47:11.506577+00:00", "meta": {"OBJECT_NAME": "FENGYUN 1C DEB", "OBJECT_ID": "1999-025BZP", "EPOCH": "2025-12-15T00:59:33.000288", "MEAN_MOTION": 14.15782518, "ECCENTRICITY": 0.00948096, "INCLINATION": 99.2167, "RA_OF_ASC_NODE": 17.645, "ARG_OF_PERICENTER": 313.866, "MEAN_ANOMALY": 74.7981, "EPHEMERIS_TYPE": 0, "CLASSIFICATION_TYPE": "U", "NORAD_CAT_ID": 31609, "ELEMENT_SET_NO": 999, "REV_AT_EPOCH": 66117, "BSTAR": 0.0017564085, "MEAN_MOTION_DOT": 3.557e-05, "MEAN_MOTION_DDOT": 0}, "tle": {"line1": "1 31609U 99025BZP 25349.04135417  .00003557  00000+0  17564-2 0  9996", "line2": "2 31609  99.2167  17.6450 0094809 313.8660  74.7981 14.15782518661174"}}, "geometry": {"type": "Point", "coordinates": [-77.60076031128519, 80.66499290180036]}}, {"type": "Feature", "properties": {"norad_id": 31612, "name": "FENGYUN 1C DEB", "group": "fengyun-1c-debris", "lat": -58.1000735753643, "lon": -71.89124821525498, "alt_km": 373.5005061144793, "timestamp": "2025-12-18T15:47:11.506587+00:00", "meta": {"OBJECT_NAME": "FENGYUN 1C DEB", "OBJECT_ID": "1999-025BZS", "EPOCH": "2025-12-15T05:34:20.315712", "MEAN_MOTION": 15.71781669, "ECCENTRICITY": 0.00321406, "INCLINATION": 100.3339, "RA_OF_ASC_NODE": 265.9962, "ARG_OF_PERICENTER": 93.9662, "MEAN_ANOMALY": 266.5266, "EPHEMERIS_TYPE": 0, "CLASSIFICATION_TYPE": "U", "NORAD_CAT_ID": 31612, "ELEMENT_SET_NO": 999, "REV_AT_EPOCH": 44, "BSTAR": 0.0014945855, "MEAN_MOTION_DOT": 0.00203446, "MEAN_MOTION_DDOT": 0}, "tle": {"line1": "1 31612U 99025BZS 25349.23217958  .00203446  00000+0  14946-2 0  9992", "line2": "2 31612 100.3339 265.9962 0032140  93.9662 266.5266 15.71781669   440"}}, "geometry": {"type": "Point", "coordinates": [-71.89124821525498, -58.1000735753643]}}, {"type": "Feature", "properties": {"norad_id": 31613, "name": "FENGYUN 1C DEB", "group": "fengyun-1c-debris", "lat": 44.89984523855965, "lon": 170.43218945542768, "alt_km": 834.8997305620887, "timestamp": "2025-12-18T15:47:11.506598+00:00", "meta": {"OBJECT_NAME": "FENGYUN 1C DEB", "OBJECT_ID": "1999-025BZT", "EPOCH": "2025-12-17T23:43:09.488928", "MEAN_MOTION": 13.63457021, "ECCENTRICITY": 0.03426681, "INCLINATION": 98.4238, "RA_OF_ASC_NODE": 178.3427, "ARG_OF_PERICENTER": 92.1319, "MEAN_ANOMALY": 271.91, "EPHEMERIS_TYPE": 0, "CLASSIFICATION_TYPE": "U", "NORAD_CAT_ID": 31613, "ELEMENT_SET_NO": 999, "REV_AT_EPOCH": 91833, "BSTAR": 0.0010710704, "MEAN_MOTION_DOT": 1.224e-05, "MEAN_MOTION_DDOT": 0}, "tle": {"line1": "1 31613U 99025BZT 25351.98830427  .00001224  00000+0  10711-2 0  9996", "line2": "2 31613  98.4238 178.3427 0342668  92.1319 271.9100 13.63457021918332"}}, "geometry": {"type": "Point", "coordinates": [170.43218945542768, 44.89984523855965]}}, {"type": "Feature", "properties": {"norad_id": 31614, "name": "FENGYUN 1C DEB", "group": "fengyun-1c-debris", "lat": 72.22441313020497, "lon": -130.21411419260124, "alt_km": 563.3142501126949, "timestamp": "2025-12-18T15:47:11.506608+00:00", "meta": {"OBJECT_NAME": "FENGYUN 1C DEB", "OBJECT_ID": "1999-025BZU", "EPOCH": "2025-12-18T04:57:15.109632", "MEAN_MOTION": 14.98336687, "ECCENTRICITY": 0.00197803, "INCLINATION": 98.9752, "RA_OF_ASC_NODE": 258.8043, "ARG_OF_PERICENTER": 352.2326, "MEAN_ANOMALY": 168.9938, "EPHEMERIS_TYPE": 0, "CLASSIFICATION_TYPE": "U", "NORAD_CAT_ID": 31614, "ELEMENT_SET_NO": 999, "REV_AT_EPOCH": 96511, "BSTAR": 0.0072873342, "MEAN_MOTION_DOT": 0.00088121, "MEAN_MOTION_DDOT": 0}, "tle": {"line1": "1 31614U 99025BZU 25352.20642488  .00088121  00000+0  72873-2 0  9999", "line2": "2 31614  98.9752 258.8043 0019780 352.2326 168.9938 14.98336687965116"}}, "geometry": {"type": "Point", "coordinates": [-130.21411419260124, 72.22441313020497]}}]}